{"type": "FeatureCollection", "features": [ {"type": "Feature", "properties": {"norad_id": 33905, "name": "COSMOS 2251 DEB", "group": "cosmos-2251-debris", "lat": -22.20263333253784, "lon": 123.67188159813928, "alt_km": 739.2232227105951, "timestamp": "2025-12-23T09:49:07.475864+00:00", "meta": {"OBJECT_NAME": "COSMOS 2251 DEB", "OBJECT_ID": "1993-036DJ", "EPOCH": "2025-12-22T21:25:54.795648", "MEAN_MOTION": 14.35418817, "ECCENTRICITY": 0.00582468, "INCLINATION": 73.8867, "RA_OF_ASC_NODE": 297.851, "ARG_OF_PERICENTER": 185.1914, "MEAN_ANOMALY": 231.6561, "EPHEMERIS_TYPE": 0, "CLASSIFICATION_TYPE": "U", "NORAD_CAT_ID": 33905, "ELEMENT_SET_NO": 999, "REV_AT_EPOCH": 87833, "BSTAR": 0.00052356948, "MEAN_MOTION_DOT": 1.506e-05, "MEAN_MOTION_DDOT": 0}, "tle": {"line1": "1 33905U 93036DJ  25356.89299532  .00001506  00000+0  52357-3 0  9995", "line2": "2 33905  73.8867 297.8510 0058246 185.1914 231.6561 14.35418817878332"}}, "geometry": {"type": "Point", "coordinates": [123.67188159813928, -22.20263333253784]}}, {"type": "Feature", "properties": {"norad_id": 33906, "name": "COSMOS 2251 DEB", "group": "cosmos-2251-debris", "lat": -21.823067487798983, "lon": 127.78254372393559, "alt_km": 722.4418676899386, "timestamp": "2025-12-23T09:49:07.475875+00:00", "meta": {"OBJECT_NAME": "COSMOS 2251 DEB", "OBJECT_ID": "1993-036DK", "EPOCH": "2025-12-22T07:12:45.176832", "MEAN_MOTION": 14.57239104, "ECCENTRICITY": 0.00369318, "INCLINATION": 74.0309, "RA_OF_ASC_NODE": 303.3041, "ARG_OF_PERICENTER": 331.3199, "MEAN_ANOMALY": 178.2637, "EPHEMERIS_TYPE": 0, "CLASSIFICATION_TYPE": "U", "NORAD_CAT_ID": 33906, "ELEMENT_SET_NO": 999, "REV_AT_EPOCH": 88147, "BSTAR": 0.0020302712, "MEAN_MOTION_DOT": 9.244e-05, "MEAN_MOTION_DDOT": 0}, "tle": {"line1": "1 33906U 93036DK  25356.30052288  .00009244  00000+0  20303-2 0  9999", "line2": "2 33906  74.0309 303.3041 0036931 331.3199 178.2637 14.57239104881479"}}, "geometry": {"type": "Point", "coordinates": [127.78254372393559, -21.823067487798983]}}, {"type": "Feature", "properties": {"norad_id": 33907, "name": "COSMOS 2251 DEB", "group": "cosmos-2251-debris", "lat": -51.211230380854126, "lon": -144.9110166205306, "alt_km": 874.5529942474741, "timestamp": "2025-12-23T09:49:07.475885+00:00", "meta": {"OBJECT_NAME": "COSMOS 2251 DEB", "OBJECT_ID": "1993-036DL", "EPOCH": "2025-12-22T11:29:12.563232", "MEAN_MOTION": 14.30589981, "ECCENTRICITY": 0.01118629, "INCLINATION": 74.0693, "RA_OF_ASC_NODE": 15.9616, "ARG_OF_PERICENTER": 68.4867, "MEAN_ANOMALY": 55.0515, "EPHEMERIS_TYPE": 0, "CLASSIFICATION_TYPE": "U", "NORAD_CAT_ID": 33907, "ELEMENT_SET_NO": 999, "REV_AT_EPOCH": 86719, "BSTAR": 0.0019780388, "MEAN_MOTION_DOT": 5.506e-05, "MEAN_MOTION_DDOT": 0}, "tle": {"line1": "1 33907U 93036DL  25356.47861763  .00005506  00000+0  19780-2 0  9998", "line2": "2 33907  74.0693  15.9616 0111862  68.4867  55.0515 14.30589981867199"}}, "geometry": {"type": "Point", "coordinates": [-144.9110166205306, -51.211230380854126]}}, {"type": "Feature", "properties": {"norad_id": 33908, "name": "COSMOS 2251 DEB", "group": "cosmos-2251-debris", "lat": 73.64777069478366, "lon": -74.44717515448475, "alt_km": 928.3575993780587, "timestamp": "2025-12-23T09:49:07.475896+00:00", "meta": {"OBJECT_NAME": "COSMOS 2251 DEB", "OBJECT_ID": "1993-036DM", "EPOCH": "2025-12-22T19:43:01.199424", "MEAN_MOTION": 14.0741514, "ECCENTRICITY": 0.02223827, "INCLINATION": 73.8365, "RA_OF_ASC_NODE": 187.8753, "ARG_OF_PERICENTER": 209.5233, "MEAN_ANOMALY": 149.3197, "EPHEMERIS_TYPE": 0, "CLASSIFICATION_TYPE": "U", "NORAD_CAT_ID": 33908, "ELEMENT_SET_NO": 999, "REV_AT_EPOCH": 85615, "BSTAR": 0.0021897323, "MEAN_MOTION_DOT": 4.592e-05, "MEAN_MOTION_DDOT": 0}, "tle": {"line1": "1 33908U 93036DM  25356.82154166  .00004592  00000+0  21897-2 0  9996", "line2": "2 33908  73.8365 187.8753 0222382 209.5233 149.3197 14.07415140856155"}}, "geometry": {"type": "Point", "coordinates": [-74.44717515448475, 73.64777069478366]}}, {"type": "Feature", "properties": {"norad_id": 33911, "name": "COSMOS 2251 DEB", "group": "cosmos-2251-debris", "lat": -58.70446840039861, "lon": 113.09171375075051, "alt_km": 658.7292134992931, "timestamp": "2025-12-23T09:49:07.475906+00:00", "meta": {"OBJECT_NAME": "COSMOS 2251 DEB", "OBJECT_ID": "1993-036DQ", "EPOCH": "2025-12-22T20:07:55.852896", "MEAN_MOTION": 14.75092709, "ECCENTRICITY": 0.00139875, "INCLINATION": 74.0904, "RA_OF_ASC_NODE": 142.1847, "ARG_OF_PERICENTER": 75.4181, "MEAN_ANOMALY": 74.9634, "EPHEMERIS_TYPE": 0, "CLASSIFICATION_TYPE": "U", "NORAD_CAT_ID": 33911, "ELEMENT_SET_NO": 999, "REV_AT_EPOCH": 88793, "BSTAR": 0.0021527339, "MEAN_MOTION_DOT": 0.00014537, "MEAN_MOTION_DDOT": 0}, "tle": {"line1": "1 33911U 93036DQ  25356.83884089  .00014537  00000+0  21527-2 0  9995", "line2": "2 33911  74.0904 142.1847 0013987  75.4181  74.9634 14.75092709887936"}}, "geometry": {"type": "Point", "coordinates": [113.09171375075051, -58.70446840039861]}}, {"type": "Feature", "properties": {"norad_id": 33912, "name": "COSMOS 2251 DEB", "group": "cosmos-2251-debris", "lat": 18.763474863224868, "lon": 175.20773420677713, "alt_km": 724.4652698457294, "timestamp": "2025-12-23T09:49:07.475916+00:00", "meta": {"OBJECT_NAME": "COSMOS 2251 DEB", "OBJECT_ID": "1993-036DR", "EPOCH": "2025-12-22T22:44:22.259904", "MEAN_MOTION": 14.51949848, "ECCENTRICITY": 0.00113075, "INCLINATION": 74.0328, "RA_OF_ASC_NODE": 170.4954, "ARG_OF_PERICENTER": 249.4108, "MEAN_ANOMALY": 238.1547, "EPHEMERIS_TYPE": 0, "CLASSIFICATION_TYPE": "U", "NORAD_CAT_ID": 33912, "ELEMENT_SET_NO": 999, "REV_AT_EPOCH": 88581, "BSTAR": 0.00079778157, "MEAN_MOTION_DOT": 3.196e-05, "MEAN_MOTION_DDOT": 0}, "tle": {"line1": "1 33912U 93036DR  25356.94747986  .00003196  00000+0  79778-3 0  9993", "line2": "2 33912  74.0328 170.4954 0011307 249.4108 238.1547 14.51949848885817"}}, "geometry": {"type": "Point", "coordinates": [175.20773420677713, 18.763474863224868]}}, {"type": "Feature", "properties": {"norad_id": 33913, "name": "COSMOS 2251 DEB", "group": "cosmos-2251-debris", "lat": -24.409339859455564, "lon": 156.18882297028443, "alt_km": 724.0715913764525, "timestamp": "2025-12-23T09:49:07.475926+00:00", "meta": {"OBJECT_NAME": "COSMOS 2251 DEB", "OBJECT_ID": "1993-036DS", "EPOCH": "2025-12-22T17:26:02.190336", "MEAN_MOTION": 14.48524132, "ECCENTRICITY": 0.00481438, "INCLINATION": 74.0321, "RA_OF_ASC_NODE": 164.9337, "ARG_OF_PERICENTER": 265.6181, "MEAN_ANOMALY": 109.8911, "EPHEMERIS_TYPE": 0, "CLASSIFICATION_TYPE": "U", "NORAD_CAT_ID": 33913, "ELEMENT_SET_NO": 999, "REV_AT_EPOCH": 88602, "BSTAR": 0.00048788342, "MEAN_MOTION_DOT": 1.831e-05, "MEAN_MOTION_DDOT": 0}, "tle": {"line1": "1 33913U 93036DS  25356.72641424  .00001831  00000+0  48788-3 0  9991", "line2": "2 33913  74.0321 164.9337 0048143 265.6181 109.8911 14.48524132886027"}}, "geometry": {"type": "Point", "coordinates": [156.18882297028443, -24.409339859455564]}}, {"type": "Feature", "properties": {"norad_id": 33914, "name": "COSMOS 2251 DEB", "group": "cosmos-2251-debris", "lat": -61.38324338582835, "lon": -150.97256876061476, "alt_km": 1185.1179702065847, "timestamp": "2025-12-23T09:49:07.475936+00:00", "meta": {"OBJECT_NAME": "COSMOS 2251 DEB", "OBJECT_ID": "1993-036DT", "EPOCH": "2025-12-22T12:13:55.438752", "MEAN_MOTION": 13.71990324, "ECCENTRICITY": 0.03008141, "INCLINATION": 74.0911, "RA_OF_ASC_NODE": 358.9937, "ARG_OF_PERICENTER": 99.6634, "MEAN_ANOMALY": 23.5041, "EPHEMERIS_TYPE": 0, "CLASSIFICATION_TYPE": "U", "NORAD_CAT_ID": 33914, "ELEMENT_SET_NO": 999, "REV_AT_EPOCH": 84215, "BSTAR": 0.00023026933, "MEAN_MOTION_DOT": 2.69e-06, "MEAN_MOTION_DDOT": 0}, "tle": {"line1": "1 33914U 93036DT  25356.50966943  .00000269  00000+0  23027-3 0  9997", "line2": "2 33914  74.0911 358.9937 0300814  99.6634  23.5041 13.71990324842155"}}, "geometry": {"type": "Point", "coordinates": [-150.97256876061476, -61.38324338582835]}}, {"type": "Feature", "properties": {"norad_id": 33915, "name": "COSMOS 2251 DEB", "group": "cosmos-2251-debris", "lat": -73.86525642830247, "lon": -83.94167631591789, "alt_km": 852.9390755547402, "timestamp": "2025-12-23T09:49:07.475947+00:00", "meta": {"OBJECT_NAME": "COSMOS 2251 DEB", "OBJECT_ID": "1993-036DU", "EPOCH": "2025-12-22T20:00:40.455648", "MEAN_MOTION": 14.35104003, "ECCENTRICITY": 0.01040234, "INCLINATION": 74.043, "RA_OF_ASC_NODE": 15.6075, "ARG_OF_PERICENTER": 105.4237, "MEAN_ANOMALY": 70.7886, "EPHEMERIS_TYPE": 0, "CLASSIFICATION_TYPE": "U", "NORAD_CAT_ID": 33915, "ELEMENT_SET_NO": 999, "REV_AT_EPOCH": 87902, "BSTAR": 0.00030095649, "MEAN_MOTION_DOT": 8.87e-06, "MEAN_MOTION_DDOT": 0}, "tle": {"line1": "1 33915U 93036DU  25356.83380157  .00000887  00000+0  30096-3 0  9991", "line2": "2 33915  74.0430  15.6075 0104023 105.4237  70.7886 14.35104003879020"}}, "geometry": {"type": "Point", "coordinates": [-83.94167631591789, -73.86525642830247]}}, {"type": "Feature", "properties": {"norad_id": 33916, "name": "COSMOS 2251 DEB", "group": "cosmos-2251-debris", "lat": 19.249318936633024, "lon": 28.78873426197324, "alt_km": 1242.1208779519593, "timestamp": "2025-12-23T09:49:07.475957+00:00", "meta": {"OBJECT_NAME": "COSMOS 2251 DEB", "OBJECT_ID": "1993-036DV", "EPOCH": "2025-12-22T11:31:10.399872", "MEAN_MOTION": 13.68623879, "ECCENTRICITY": 0.03249112, "INCLINATION": 74.052, "RA_OF_ASC_NODE": 24.5842, "ARG_OF_PERICENTER": 194.6454, "MEAN_ANOMALY": 289.8397, "EPHEMERIS_TYPE": 0, "CLASSIFICATION_TYPE": "U", "NORAD_CAT_ID": 33916, "ELEMENT_SET_NO": 999, "REV_AT_EPOCH": 84024, "BSTAR": 0.00031531382, "MEAN_MOTION_DOT": 3.69e-06, "MEAN_MOTION_DDOT": 0}, "tle": {"line1": "1 33916U 93036DV  25356.47998148  .00000369  00000+0  31531-3 0  9997", "line2": "2 33916  74.0520  24.5842 0324911 194.6454 289.8397 13.68623879840247"}}, "geometry": {"type": "Point", "coordinates": [28.78873426197324, 19.249318936633024]}}]}